{
    "links": {
        "self": "http://www.neowsapp.com/rest/v1/neo/54016449?api_key=iIulBulltgU6a56xZRHN4H3l9WmuAYTsLGpBGhQ2"
    },
    "id": "54016449",
    "neo_reference_id": "54016449",
    "name": "(2020 GR)",
    "designation": "2020 GR",
    "nasa_jpl_url": "http://ssd.jpl.nasa.gov/sbdb.cgi?sstr=54016449",
    "absolute_magnitude_h": 25.609,
    "estimated_diameter": {
        "kilometers": {
            "estimated_diameter_min": 0.0200795963,
            "estimated_diameter_max": 0.0448993422
        },
        "meters": {
            "estimated_diameter_min": 20.0795962783,
            "estimated_diameter_max": 44.899342239
        },
        "miles": {
            "estimated_diameter_min": 0.0124768788,
            "estimated_diameter_max": 0.0278991492
        },
        "feet": {
            "estimated_diameter_min": 65.8779426537,
            "estimated_diameter_max": 147.3075579914
        }
    },
    "is_potentially_hazardous_asteroid": false,
    "close_approach_data": [
        {
            "close_approach_date": "2020-03-25",
            "close_approach_date_full": "2020-Mar-25 01:12",
            "epoch_date_close_approach": 1585098720000,
            "relative_velocity": {
                "kilometers_per_second": "7.8251116446",
                "kilometers_per_hour": "28170.4019207105",
                "miles_per_hour": "17503.9922378992"
            },
            "miss_distance": {
                "astronomical": "0.0676338284",
                "lunar": "26.3095592476",
                "kilometers": "10117876.668585508",
                "miles": "6286957.0317876904"
            },
            "orbiting_body": "Earth"
        }
    ],
    "orbital_data": {
        "orbit_id": "2",
        "orbit_determination_date": "2020-04-16 06:09:03",
        "first_observation_date": "2020-04-02",
        "last_observation_date": "2020-04-15",
        "data_arc_in_days": 13,
        "observations_used": 22,
        "orbit_uncertainty": "8",
        "minimum_orbit_intersection": ".0642435",
        "jupiter_tisserand_invariant": "4.158",
        "epoch_osculation": "2458943.5",
        "eccentricity": ".3786606054040539",
        "semi_major_axis": "1.663180899228377",
        "inclination": "10.41635093360987",
        "ascending_node_longitude": "191.3841857271919",
        "orbital_period": "783.4434607332208",
        "perihelion_distance": "1.033399813030101",
        "perihelion_argument": "329.2216374079899",
        "aphelion_distance": "2.292961985426653",
        "perihelion_time": "2458912.710065096153",
        "mean_anomaly": "14.14827887517385",
        "mean_motion": ".4595098664338557",
        "equinox": "J2000",
        "orbit_class": {
            "orbit_class_type": "AMO",
            "orbit_class_description": "Near-Earth asteroid orbits similar to that of 1221 Amor",
            "orbit_class_range": "1.017 AU < q (perihelion) < 1.3 AU"
        }
    },
    "is_sentry_object": false
}